#aV2021 12 13  0  0  0.00000000     288 DD+AD WGS84 FIT  NGA
## 2188  86400.00000000   300.00000000 59561 0.0000000000000
+   32     1  2  3  4  5  6  7  8  9 10 11 12 13 14 15 16 17
+         18 19 20 21 22 23 24 25 26 27 28 29 30 31 32  0  0
+          0  0  0  0  0  0  0  0  0  0  0  0  0  0  0  0  0
+          0  0  0  0  0  0  0  0  0  0  0  0  0  0  0  0  0
+          0  0  0  0  0  0  0  0  0  0  0  0  0  0  0  0  0
++         2  2  2  2  2  2  2  2  2  2  2  2  2  2  2  2  2
++         2  2  2  2  2  2  2  2  2  2  2  2  2  2  2  0  0
++         0  0  0  0  0  0  0  0  0  0  0  0  0  0  0  0  0
++         0  0  0  0  0  0  0  0  0  0  0  0  0  0  0  0  0
++         0  0  0  0  0  0  0  0  0  0  0  0  0  0  0  0  0
%c cc cc ccc ccc cccc cccc cccc cccc ccccc ccccc ccccc ccccc
%c cc cc ccc ccc cccc cccc cccc cccc ccccc ccccc ccccc ccccc
%f  0.0000000  0.000000000  0.00000000000  0.000000000000000
%f  0.0000000  0.000000000  0.00000000000  0.000000000000000
%i    0    0    0    0      0      0      0      0         0
%i    0    0    0    0      0      0      0      0         0
/*      NGA, ST. LOUIS,MO.                                  
/*   EPHEMERIS COMPUTED FROM 2 DAYS OF DATA                 
/*   EPOCHA v7 SMOOTHER                                     
/*   G2139 IERS2010 SATIGS SATAPC                           
*  2021 12 13  1 55  0.00000000
P  1  13476.077151 -19088.469664  12021.727884    485.606692                    
V  1  -2246.859402  15753.836720  27248.441062     -0.101910                    
P  2 -14702.335250  -1945.802366 -21377.375934   -645.467297                    
V  2   5091.501662 -28267.874377   -807.189170     -0.012737                    
P  3  20790.661663 -12956.185844 -10239.968559    -39.896054                    
V  3  12999.602730  -1254.309970  28364.761532     -0.121539                    
P  4  10893.581846 -10632.847762 -21763.948894   -199.216443                    
V  4  19038.098160  20035.625848   -334.536815      0.012661                    
P  5 -25816.382168   4669.554346  -4795.465361    -64.213346                    
V  5   4779.313377  -4312.950733 -30841.158125     -0.012991                    
P  6  -7330.671787 -18241.203757 -17760.921913    141.282414                    
V  6   7022.908735 -21575.060892  19245.188649      0.099873                    
P  7   4830.747105 -25727.639549   2805.728108    290.127585                    
V  7   4205.983407  -2152.476693 -31592.592561      0.045545                    
P  8  18780.251620   -209.104739  18896.681609    -47.869431                    
V  8  16521.766742  17303.694285 -15890.216821     -0.014931                    
P  9   -471.122646 -18845.051482 -18772.736535   -360.536493                    
V  9  18234.285958  15242.740341 -15851.926497      0.006836                    
P 10   7509.757819  13383.243394  21833.575729   -267.386374                    
V 10 -26301.774269   7502.027697   4187.044018     -0.089485                    
P 11 -14287.423430  -5213.060586 -21781.091020     13.375432                    
V 11   8554.617389 -26282.744221    663.942819     -0.031807                    
P 12 -22703.605956  10652.695403  -8791.037483   -139.932138                    
V 12 -11079.828943   -163.981272  29400.109234     -0.055944                    
P 13 -19925.418087  -8583.807805  15271.922933    228.613274                    
V 13 -10560.839676 -16598.778211 -22726.005448      0.058105                    
P 14  -6585.383994 -14109.704695  21519.177236    -54.237426                    
V 14  26567.765890  -6488.901066   3816.244640     -0.062133                    
P 15 -18722.795216   2869.385270  18340.162422    -99.589653                    
V 15 -18007.538278 -16147.436264 -15193.125681      0.028289                    
P 16  25787.518244    582.877348  -7531.193085   -439.427577                    
V 16  -8608.963284   3497.047768 -29783.559791     -0.060242                    
P 17 -11437.166710 -22215.417128   9399.739826    546.664311                    
V 17   8965.044184   7133.866916  29168.868782      0.053094                    
P 18  -4982.037852  25824.003693   3287.050822    280.471118                    
V 18  -3623.919989   3324.223436 -31666.535999     -0.065599                    
P 19 -16849.530079 -20651.971087     41.281483     91.451054                    
V 19   1857.790703  -1043.021092  32038.159778      0.049931                    
P 20 -22112.227965  -1641.555961 -14442.482071    517.669993                    
V 20  15755.486812 -10015.816498 -23264.302287     -0.001807                    
P 21  15594.934528 -10461.215777  19231.227935    153.577078                    
V 21  -2582.886915  23122.074338  15804.043173      0.009789                    
P 22  24259.204855 -10441.818622  -1151.756704   -442.780399                    
V 22   2927.212897   2859.210888  31329.452719      0.089700                    
P 23  -5616.026977  16267.343043  20188.293416     22.511706                    
V 23 -24875.399178   6469.319011 -12208.140266     -0.041684                    
P 24 -14380.867699  15700.892836  15333.464502    274.324809                    
V 24    810.414270 -20409.191069  21676.282490      0.020735                    
P 25 -13000.532319  15955.616865 -16904.306687    254.874120                    
V 25 -20802.313286   3830.155024  20208.842556      0.057588                    
P 26  18228.811984   7759.135572 -17898.041272    164.428672                    
V 26 -20865.432649   8717.534318 -17238.694285      0.036380                    
P 27  21655.937774  10017.073567  11878.314353   -230.329587                    
V 27   9570.859422  11959.399002 -26739.271596     -0.045692                    
P 28 -14025.308061 -11379.810542  19934.439386    444.282732                    
V 28  23642.474797  -5287.615981  14209.337404     -0.077505                    
P 29  -4326.842416  16077.330332 -20721.197897   -453.209557                    
V 29 -17784.661896 -19216.658982 -11273.678367     -0.051438                    
P 30  -2319.666429 -23601.592702  11778.749841   -498.853268                    
V 30   7131.091845 -13566.320871 -26165.030545     -0.029417                    
P 31   9356.792558  15990.251677 -18968.571296   -154.759523                    
V 31  -8252.514454  22625.058495  15559.494211     -0.018625                    
P 32  15714.691945  20818.347154   5632.382857    -34.357903                    
V 32  -6849.827586  -2952.992794  30481.973267     -0.053730                    
EOF
